CORAL                   
1 67684U 98067YA  26082.96267664  .00083239  00000+0  11344-2 0  9994
2 67684  51.6311   0.2195 0012345 226.7434 133.2528 15.56715238  7015
GXIBA-1                 
1 67685U 98067YB  26081.27305036  .00038654  00000+0  60489-3 0  9990
2 67685  51.6327   9.1857 0011628 227.8880 132.1122 15.53290377  6742
UITMSAT-2               
1 67686U 98067YC  26082.93385869  .00054145  00000+0  81220-3 0  9996
2 67686  51.6323   0.7792 0008793 204.3228 155.7349 15.54337820  7007
HMU-SAT2                
1 67687U 98067YD  26082.94980233  .00041043  00000+0  64333-3 0  9993
2 67687  51.6329   0.8857 0008374 207.7107 152.3438 15.53254059  6928
LEOPARD                 
1 67688U 98067YE  26082.48907410  .00042029  00000+0  64306-3 0  9994
2 67688  51.6326   3.0592 0008529 203.2990 156.7615 15.53908478  6858
CREW DRAGON 12          
1 67796U 26031A   26082.84092848  .00015301  00000+0  29016-3 0  9998
2 67796  51.6344   2.4037 0006231 225.1303 134.9180 15.48504160558451
PROGRESS-MS 33          
1 68319U 26058A   26082.05109224  .00200487  28256-4  35870-3 0  9993
2 68319  51.6358   6.8873 0011621 152.2903 207.8729 16.01170532    69
SL-4 R/B                
1 68320U 26058B   26083.14431863  .10751138  12561-4  27517-3 0  9999
2 68320  51.6482   0.7405 0007315  84.8434 275.3430 16.45417185   275
