CCSDS_OMM_VERS = 2.0
CREATION_DATE  = 
ORIGINATOR     = 

OBJECT_NAME    = CORAL
OBJECT_ID      = 1998-067YA
CENTER_NAME    = EARTH
REF_FRAME      = TEME
TIME_SYSTEM    = UTC
MEAN_ELEMENT_THEORY = SGP/SGP4

EPOCH          = 2026-03-23T23:06:15.261696
MEAN_MOTION    = 15.56715238
ECCENTRICITY   = .00123457
INCLINATION    = 51.6311
RA_OF_ASC_NODE = 0.2195
ARG_OF_PERICENTER = 226.7434
MEAN_ANOMALY   = 133.2528

EPHEMERIS_TYPE = 0
CLASSIFICATION_TYPE = U
NORAD_CAT_ID   = 67684
ELEMENT_SET_NO = 999
REV_AT_EPOCH   = 701
BSTAR          = .11344331E-2
MEAN_MOTION_DOT = .83239E-3
MEAN_MOTION_DDOT = 0

CCSDS_OMM_VERS = 2.0
CREATION_DATE  = 
ORIGINATOR     = 

OBJECT_NAME    = GXIBA-1
OBJECT_ID      = 1998-067YB
CENTER_NAME    = EARTH
REF_FRAME      = TEME
TIME_SYSTEM    = UTC
MEAN_ELEMENT_THEORY = SGP/SGP4

EPOCH          = 2026-03-22T06:33:11.551104
MEAN_MOTION    = 15.53290377
ECCENTRICITY   = .00116284
INCLINATION    = 51.6327
RA_OF_ASC_NODE = 9.1857
ARG_OF_PERICENTER = 227.8880
MEAN_ANOMALY   = 132.1122

EPHEMERIS_TYPE = 0
CLASSIFICATION_TYPE = U
NORAD_CAT_ID   = 67685
ELEMENT_SET_NO = 999
REV_AT_EPOCH   = 674
BSTAR          = .60489181E-3
MEAN_MOTION_DOT = .38654E-3
MEAN_MOTION_DDOT = 0

CCSDS_OMM_VERS = 2.0
CREATION_DATE  = 
ORIGINATOR     = 

OBJECT_NAME    = UITMSAT-2
OBJECT_ID      = 1998-067YC
CENTER_NAME    = EARTH
REF_FRAME      = TEME
TIME_SYSTEM    = UTC
MEAN_ELEMENT_THEORY = SGP/SGP4

EPOCH          = 2026-03-23T22:24:45.390816
MEAN_MOTION    = 15.54337820
ECCENTRICITY   = .00087935
INCLINATION    = 51.6323
RA_OF_ASC_NODE = 0.7792
ARG_OF_PERICENTER = 204.3228
MEAN_ANOMALY   = 155.7349

EPHEMERIS_TYPE = 0
CLASSIFICATION_TYPE = U
NORAD_CAT_ID   = 67686
ELEMENT_SET_NO = 999
REV_AT_EPOCH   = 700
BSTAR          = .81220183E-3
MEAN_MOTION_DOT = .54145E-3
MEAN_MOTION_DDOT = 0

CCSDS_OMM_VERS = 2.0
CREATION_DATE  = 
ORIGINATOR     = 

OBJECT_NAME    = HMU-SAT2
OBJECT_ID      = 1998-067YD
CENTER_NAME    = EARTH
REF_FRAME      = TEME
TIME_SYSTEM    = UTC
MEAN_ELEMENT_THEORY = SGP/SGP4

EPOCH          = 2026-03-23T22:47:42.921312
MEAN_MOTION    = 15.53254059
ECCENTRICITY   = .00083747
INCLINATION    = 51.6329
RA_OF_ASC_NODE = 0.8857
ARG_OF_PERICENTER = 207.7107
MEAN_ANOMALY   = 152.3438

EPHEMERIS_TYPE = 0
CLASSIFICATION_TYPE = U
NORAD_CAT_ID   = 67687
ELEMENT_SET_NO = 999
REV_AT_EPOCH   = 692
BSTAR          = .64332551E-3
MEAN_MOTION_DOT = .41043E-3
MEAN_MOTION_DDOT = 0

CCSDS_OMM_VERS = 2.0
CREATION_DATE  = 
ORIGINATOR     = 

OBJECT_NAME    = LEOPARD
OBJECT_ID      = 1998-067YE
CENTER_NAME    = EARTH
REF_FRAME      = TEME
TIME_SYSTEM    = UTC
MEAN_ELEMENT_THEORY = SGP/SGP4

EPOCH          = 2026-03-23T11:44:16.002240
MEAN_MOTION    = 15.53908478
ECCENTRICITY   = .00085297
INCLINATION    = 51.6326
RA_OF_ASC_NODE = 3.0592
ARG_OF_PERICENTER = 203.2990
MEAN_ANOMALY   = 156.7615

EPHEMERIS_TYPE = 0
CLASSIFICATION_TYPE = U
NORAD_CAT_ID   = 67688
ELEMENT_SET_NO = 999
REV_AT_EPOCH   = 685
BSTAR          = .64305667E-3
MEAN_MOTION_DOT = .42029E-3
MEAN_MOTION_DDOT = 0

CCSDS_OMM_VERS = 2.0
CREATION_DATE  = 
ORIGINATOR     = 

OBJECT_NAME    = CREW DRAGON 12
OBJECT_ID      = 2026-031A
CENTER_NAME    = EARTH
REF_FRAME      = TEME
TIME_SYSTEM    = UTC
MEAN_ELEMENT_THEORY = SGP/SGP4

EPOCH          = 2026-03-23T20:10:56.220672
MEAN_MOTION    = 15.48504160
ECCENTRICITY   = .00062315
INCLINATION    = 51.6344
RA_OF_ASC_NODE = 2.4037
ARG_OF_PERICENTER = 225.1303
MEAN_ANOMALY   = 134.9180

EPHEMERIS_TYPE = 0
CLASSIFICATION_TYPE = U
NORAD_CAT_ID   = 67796
ELEMENT_SET_NO = 999
REV_AT_EPOCH   = 55845
BSTAR          = .2901609E-3
MEAN_MOTION_DOT = .15301E-3
MEAN_MOTION_DDOT = 0

CCSDS_OMM_VERS = 2.0
CREATION_DATE  = 
ORIGINATOR     = 

OBJECT_NAME    = PROGRESS-MS 33
OBJECT_ID      = 2026-058A
CENTER_NAME    = EARTH
REF_FRAME      = TEME
TIME_SYSTEM    = UTC
MEAN_ELEMENT_THEORY = SGP/SGP4

EPOCH          = 2026-03-23T01:13:34.369536
MEAN_MOTION    = 16.01170532
ECCENTRICITY   = .00116217
INCLINATION    = 51.6358
RA_OF_ASC_NODE = 6.8873
ARG_OF_PERICENTER = 152.2903
MEAN_ANOMALY   = 207.8729

EPHEMERIS_TYPE = 0
CLASSIFICATION_TYPE = U
NORAD_CAT_ID   = 68319
ELEMENT_SET_NO = 999
REV_AT_EPOCH   = 6
BSTAR          = .35870065E-3
MEAN_MOTION_DOT = .200487E-2
MEAN_MOTION_DDOT = .28255529E-4

CCSDS_OMM_VERS = 2.0
CREATION_DATE  = 
ORIGINATOR     = 

OBJECT_NAME    = SL-4 R/B
OBJECT_ID      = 2026-058B
CENTER_NAME    = EARTH
REF_FRAME      = TEME
TIME_SYSTEM    = UTC
MEAN_ELEMENT_THEORY = SGP/SGP4

EPOCH          = 2026-03-24T03:27:49.129632
MEAN_MOTION    = 16.45417185
ECCENTRICITY   = .0007315
INCLINATION    = 51.6482
RA_OF_ASC_NODE = 0.7405
ARG_OF_PERICENTER = 84.8434
MEAN_ANOMALY   = 275.3430

EPHEMERIS_TYPE = 0
CLASSIFICATION_TYPE = U
NORAD_CAT_ID   = 68320
ELEMENT_SET_NO = 999
REV_AT_EPOCH   = 27
BSTAR          = .27517E-3
MEAN_MOTION_DOT = .10751138E+0
MEAN_MOTION_DDOT = .12561E-4

